[{"OBJECT_NAME":"SWAS","OBJECT_ID":"1998-071A","EPOCH":"2026-03-09T12:50:12.826752","MEAN_MOTION":15.08888192,"ECCENTRICITY":0.00040991,"INCLINATION":69.8952,"RA_OF_ASC_NODE":124.3662,"ARG_OF_PERICENTER":14.3215,"MEAN_ANOMALY":345.8065,"EPHEMERIS_TYPE":0,"CLASSIFICATION_TYPE":"U","NORAD_CAT_ID":25560,"ELEMENT_SET_NO":999,"REV_AT_EPOCH":48223,"BSTAR":0.00029986322,"MEAN_MOTION_DOT":4.636e-5,"MEAN_MOTION_DDOT":0},{"OBJECT_NAME":"STARLINK-3696","OBJECT_ID":"2022-025K","EPOCH":"2026-03-10T00:00:02.999808","MEAN_MOTION":15.09748411,"ECCENTRICITY":0.00012461,"INCLINATION":53.0656,"RA_OF_ASC_NODE":34.4217,"ARG_OF_PERICENTER":91.4516,"MEAN_ANOMALY":315.6909,"EPHEMERIS_TYPE":0,"CLASSIFICATION_TYPE":"U","NORAD_CAT_ID":51965,"ELEMENT_SET_NO":999,"REV_AT_EPOCH":579,"BSTAR":0.0013311112,"MEAN_MOTION_DOT":0.00021497,"MEAN_MOTION_DDOT":0}]
